CCSDS_OMM_VERS = 2.0
CREATION_DATE  = 
ORIGINATOR     = 

OBJECT_NAME    = UNKNOWN
OBJECT_ID      = 
CENTER_NAME    = EARTH
REF_FRAME      = TEME
TIME_SYSTEM    = UTC
MEAN_ELEMENT_THEORY = SGP/SGP4

EPOCH          = 2026-02-23T00:44:24.848160
MEAN_MOTION    = 14.10028091
ECCENTRICITY   = .0086539
INCLINATION    = 89.9958
RA_OF_ASC_NODE = 267.8912
ARG_OF_PERICENTER = 350.0810
MEAN_ANOMALY   = 9.8663

EPHEMERIS_TYPE = 0
CLASSIFICATION_TYPE = U
NORAD_CAT_ID   = 87335
ELEMENT_SET_NO = 999
REV_AT_EPOCH   = 39715
BSTAR          = .10633E-1
MEAN_MOTION_DOT = .19471E-3
MEAN_MOTION_DDOT = 0

CCSDS_OMM_VERS = 2.0
CREATION_DATE  = 
ORIGINATOR     = 

OBJECT_NAME    = UNKNOWN
OBJECT_ID      = 
CENTER_NAME    = EARTH
REF_FRAME      = TEME
TIME_SYSTEM    = UTC
MEAN_ELEMENT_THEORY = SGP/SGP4

EPOCH          = 2026-02-21T06:52:03.784224
MEAN_MOTION    = 13.96702522
ECCENTRICITY   = .0059101
INCLINATION    = 82.7536
RA_OF_ASC_NODE = 4.4462
ARG_OF_PERICENTER = 124.8223
MEAN_ANOMALY   = 235.8525

EPHEMERIS_TYPE = 0
CLASSIFICATION_TYPE = U
NORAD_CAT_ID   = 87405
ELEMENT_SET_NO = 999
REV_AT_EPOCH   = 62100
BSTAR          = .16098E-2
MEAN_MOTION_DOT = .2281E-4
MEAN_MOTION_DDOT = 0

CCSDS_OMM_VERS = 2.0
CREATION_DATE  = 
ORIGINATOR     = 

OBJECT_NAME    = UNKNOWN
OBJECT_ID      = 
CENTER_NAME    = EARTH
REF_FRAME      = TEME
TIME_SYSTEM    = UTC
MEAN_ELEMENT_THEORY = SGP/SGP4

EPOCH          = 2026-02-22T05:44:23.490528
MEAN_MOTION    = 14.30496800
ECCENTRICITY   = .0069752
INCLINATION    = 65.7826
RA_OF_ASC_NODE = 140.5681
ARG_OF_PERICENTER = 261.4661
MEAN_ANOMALY   = 129.2436

EPHEMERIS_TYPE = 0
CLASSIFICATION_TYPE = U
NORAD_CAT_ID   = 87426
ELEMENT_SET_NO = 999
REV_AT_EPOCH   = 63281
BSTAR          = .17583E-2
MEAN_MOTION_DOT = .4622E-4
MEAN_MOTION_DDOT = 0

CCSDS_OMM_VERS = 2.0
CREATION_DATE  = 
ORIGINATOR     = 

OBJECT_NAME    = UNKNOWN
OBJECT_ID      = 
CENTER_NAME    = EARTH
REF_FRAME      = TEME
TIME_SYSTEM    = UTC
MEAN_ELEMENT_THEORY = SGP/SGP4

EPOCH          = 2026-02-23T12:46:52.158432
MEAN_MOTION    = 13.90841938
ECCENTRICITY   = .0063972
INCLINATION    = 100.4519
RA_OF_ASC_NODE = 275.0500
ARG_OF_PERICENTER = 15.1609
MEAN_ANOMALY   = 345.1444

EPHEMERIS_TYPE = 0
CLASSIFICATION_TYPE = U
NORAD_CAT_ID   = 87448
ELEMENT_SET_NO = 999
REV_AT_EPOCH   = 61935
BSTAR          = .11244E-2
MEAN_MOTION_DOT = .1376E-4
MEAN_MOTION_DDOT = 0

CCSDS_OMM_VERS = 2.0
CREATION_DATE  = 
ORIGINATOR     = 

OBJECT_NAME    = UNKNOWN
OBJECT_ID      = 
CENTER_NAME    = EARTH
REF_FRAME      = TEME
TIME_SYSTEM    = UTC
MEAN_ELEMENT_THEORY = SGP/SGP4

EPOCH          = 2026-02-22T00:08:45.737952
MEAN_MOTION    = 14.15044008
ECCENTRICITY   = .0509514
INCLINATION    = 65.7710
RA_OF_ASC_NODE = 261.5960
ARG_OF_PERICENTER = 328.3661
MEAN_ANOMALY   = 28.7697

EPHEMERIS_TYPE = 0
CLASSIFICATION_TYPE = U
NORAD_CAT_ID   = 87456
ELEMENT_SET_NO = 999
REV_AT_EPOCH   = 62157
BSTAR          = .55206E-3
MEAN_MOTION_DOT = .3756E-4
MEAN_MOTION_DDOT = 0

CCSDS_OMM_VERS = 2.0
CREATION_DATE  = 
ORIGINATOR     = 

OBJECT_NAME    = UNKNOWN
OBJECT_ID      = 
CENTER_NAME    = EARTH
REF_FRAME      = TEME
TIME_SYSTEM    = UTC
MEAN_ELEMENT_THEORY = SGP/SGP4

EPOCH          = 2026-02-12T14:12:24.257952
MEAN_MOTION    = 13.61840426
ECCENTRICITY   = .0675202
INCLINATION    = 65.8215
RA_OF_ASC_NODE = 82.0543
ARG_OF_PERICENTER = 276.9785
MEAN_ANOMALY   = 160.5715

EPHEMERIS_TYPE = 0
CLASSIFICATION_TYPE = U
NORAD_CAT_ID   = 87517
ELEMENT_SET_NO = 999
REV_AT_EPOCH   = 60133
BSTAR          = .15781E-2
MEAN_MOTION_DOT = .5788E-4
MEAN_MOTION_DDOT = 0

CCSDS_OMM_VERS = 2.0
CREATION_DATE  = 
ORIGINATOR     = 

OBJECT_NAME    = UNKNOWN
OBJECT_ID      = 
CENTER_NAME    = EARTH
REF_FRAME      = TEME
TIME_SYSTEM    = UTC
MEAN_ELEMENT_THEORY = SGP/SGP4

EPOCH          = 2026-02-21T19:34:44.355360
MEAN_MOTION    = 13.35608982
ECCENTRICITY   = .0060182
INCLINATION    = 99.6987
RA_OF_ASC_NODE = 268.1559
ARG_OF_PERICENTER = 90.2236
MEAN_ANOMALY   = 330.0173

EPHEMERIS_TYPE = 0
CLASSIFICATION_TYPE = U
NORAD_CAT_ID   = 87541
ELEMENT_SET_NO = 999
REV_AT_EPOCH   = 59152
BSTAR          = .13688E-3
MEAN_MOTION_DOT = .29E-6
MEAN_MOTION_DDOT = 0

CCSDS_OMM_VERS = 2.0
CREATION_DATE  = 
ORIGINATOR     = 

OBJECT_NAME    = UNKNOWN
OBJECT_ID      = 
CENTER_NAME    = EARTH
REF_FRAME      = TEME
TIME_SYSTEM    = UTC
MEAN_ELEMENT_THEORY = SGP/SGP4

EPOCH          = 2026-02-19T18:07:26.802912
MEAN_MOTION    = 13.53959633
ECCENTRICITY   = .0693457
INCLINATION    = 65.6693
RA_OF_ASC_NODE = 188.7923
ARG_OF_PERICENTER = 196.8794
MEAN_ANOMALY   = 160.8105

EPHEMERIS_TYPE = 0
CLASSIFICATION_TYPE = U
NORAD_CAT_ID   = 87553
ELEMENT_SET_NO = 999
REV_AT_EPOCH   = 60059
BSTAR          = .16107E-2
MEAN_MOTION_DOT = .5228E-4
MEAN_MOTION_DDOT = 0

CCSDS_OMM_VERS = 2.0
CREATION_DATE  = 
ORIGINATOR     = 

OBJECT_NAME    = UNKNOWN
OBJECT_ID      = 
CENTER_NAME    = EARTH
REF_FRAME      = TEME
TIME_SYSTEM    = UTC
MEAN_ELEMENT_THEORY = SGP/SGP4

EPOCH          = 2026-02-22T02:13:24.865824
MEAN_MOTION    = 13.28435157
ECCENTRICITY   = .0063398
INCLINATION    = 101.7617
RA_OF_ASC_NODE = 282.9717
ARG_OF_PERICENTER = 233.9262
MEAN_ANOMALY   = 125.5970

EPHEMERIS_TYPE = 0
CLASSIFICATION_TYPE = U
NORAD_CAT_ID   = 87557
ELEMENT_SET_NO = 999
REV_AT_EPOCH   = 57450
BSTAR          = .71201E-2
MEAN_MOTION_DOT = .3231E-4
MEAN_MOTION_DDOT = 0

CCSDS_OMM_VERS = 2.0
CREATION_DATE  = 
ORIGINATOR     = 

OBJECT_NAME    = UNKNOWN
OBJECT_ID      = 
CENTER_NAME    = EARTH
REF_FRAME      = TEME
TIME_SYSTEM    = UTC
MEAN_ELEMENT_THEORY = SGP/SGP4

EPOCH          = 2026-02-23T15:28:02.572608
MEAN_MOTION    = 12.32165753
ECCENTRICITY   = .0175967
INCLINATION    = 101.9977
RA_OF_ASC_NODE = 115.1379
ARG_OF_PERICENTER = 159.8358
MEAN_ANOMALY   = 354.3690

EPHEMERIS_TYPE = 0
CLASSIFICATION_TYPE = U
NORAD_CAT_ID   = 87561
ELEMENT_SET_NO = 999
REV_AT_EPOCH   = 55141
BSTAR          = .53876E-4
MEAN_MOTION_DOT = -.36E-6
MEAN_MOTION_DDOT = 0

CCSDS_OMM_VERS = 2.0
CREATION_DATE  = 
ORIGINATOR     = 

OBJECT_NAME    = UNKNOWN
OBJECT_ID      = 
CENTER_NAME    = EARTH
REF_FRAME      = TEME
TIME_SYSTEM    = UTC
MEAN_ELEMENT_THEORY = SGP/SGP4

EPOCH          = 2026-02-21T11:12:19.588896
MEAN_MOTION    = 14.06215079
ECCENTRICITY   = .0171527
INCLINATION    = 99.9525
RA_OF_ASC_NODE = 56.0131
ARG_OF_PERICENTER = 339.6966
MEAN_ANOMALY   = 19.7434

EPHEMERIS_TYPE = 0
CLASSIFICATION_TYPE = U
NORAD_CAT_ID   = 87565
ELEMENT_SET_NO = 999
REV_AT_EPOCH   = 62637
BSTAR          = .70668E-3
MEAN_MOTION_DOT = .1275E-4
MEAN_MOTION_DDOT = 0

CCSDS_OMM_VERS = 2.0
CREATION_DATE  = 
ORIGINATOR     = 

OBJECT_NAME    = UNKNOWN
OBJECT_ID      = 
CENTER_NAME    = EARTH
REF_FRAME      = TEME
TIME_SYSTEM    = UTC
MEAN_ELEMENT_THEORY = SGP/SGP4

EPOCH          = 2026-02-19T08:07:15.155040
MEAN_MOTION    = 12.68543617
ECCENTRICITY   = .0055839
INCLINATION    = 101.9928
RA_OF_ASC_NODE = 235.3379
ARG_OF_PERICENTER = 118.8645
MEAN_ANOMALY   = 2.8612

EPHEMERIS_TYPE = 0
CLASSIFICATION_TYPE = U
NORAD_CAT_ID   = 87569
ELEMENT_SET_NO = 999
REV_AT_EPOCH   = 56716
BSTAR          = .71391E-4
MEAN_MOTION_DOT = -.34E-6
MEAN_MOTION_DDOT = 0

